IRIDIUM 39              
1 25042U 97069D   25280.94664037  .00000861  00000+0  21981-3 0  9998
2 25042  86.3965 162.8392 0015850 293.7215  66.2326 14.49375581465299
IRIDIUM 38              
1 25043U 97069E   25280.46684082  .00000678  00000+0  21693-3 0  9994
2 25043  86.4029 185.9565 0004146  86.6800 273.4873 14.38227478462098
IRIDIUM 42              
1 25077U 97077A   25280.75044389  .00000636  00000+0  21045-3 0  9997
2 25077  86.4034 192.1376 0002949  90.3894 269.7641 14.36455923457355
IRIDIUM 44              
1 25078U 97077B   25280.95676660  .00000630  00000+0  19256-3 0  9998
2 25078  86.4025 173.7031 0003416  54.0350 306.1166 14.40351050459938
IRIDIUM 45              
1 25104U 97082A   25280.64161170  .00028202  00000+0  90143-3 0  9994
2 25104  86.3614 353.1276 0104666 268.7544  90.1710 15.27036207469176
IRIDIUM 24              
1 25105U 97082B   25280.36795075  .00000864  00000+0  25590-3 0  9999
2 25105  86.3940  32.6908 0013372  71.4240 288.8412 14.42230086459389
IRIDIUM 51              
1 25262U 98018A   25280.95813639  .00088523  00000+0  14143-2 0  9994
2 25262  86.3843 359.6506 0070301 173.5552 186.6630 15.50020299464427
IRIDIUM 57              
1 25273U 98019B   25280.92318791  .00000539  00000+0  17898-3 0  9995
2 25273  86.3902  98.0045 0002237  88.0777 272.0676 14.35973531440960
